[{"OBJECT_NAME":"STARLINK-2231","OBJECT_ID":"2021-041AA","EPOCH":"2026-03-09T10:44:22.540704","MEAN_MOTION":15.30217025,"ECCENTRICITY":0.00012518,"INCLINATION":53.1594,"RA_OF_ASC_NODE":128.014,"ARG_OF_PERICENTER":77.7398,"MEAN_ANOMALY":282.3743,"EPHEMERIS_TYPE":0,"CLASSIFICATION_TYPE":"U","NORAD_CAT_ID":48577,"ELEMENT_SET_NO":999,"REV_AT_EPOCH":26523,"BSTAR":0.00013810367,"MEAN_MOTION_DOT":3.735e-5,"MEAN_MOTION_DDOT":0},{"OBJECT_NAME":"SCS-01 H","OBJECT_ID":"2025-100H","EPOCH":"2026-03-09T23:19:05.376864","MEAN_MOTION":15.31767757,"ECCENTRICITY":0.00071581,"INCLINATION":97.3749,"RA_OF_ASC_NODE":145.8085,"ARG_OF_PERICENTER":277.8492,"MEAN_ANOMALY":82.1937,"EPHEMERIS_TYPE":0,"CLASSIFICATION_TYPE":"U","NORAD_CAT_ID":63989,"ELEMENT_SET_NO":999,"REV_AT_EPOCH":4566,"BSTAR":0.0011436254,"MEAN_MOTION_DOT":0.00035149,"MEAN_MOTION_DDOT":0}]
